{
  "type": "FeatureCollection",
  "crs": {
    "type": "name",
    "properties": {
      "name": "urn:ogc:def:crs:OGC:1.3:CRS84"
    }
  },
  "features": [
    {
      "type": "Feature",
      "properties": {
        "zone": "Zone 1",
        "risk": "High",
        "rain_mm": 10.3,
        "slope_class": "High",
        "note": "Risk alert, not a prediction. Glacial lake outbursts are not rain-driven and are not covered."
      },
      "geometry": {
        "type": "Polygon",
        "coordinates": [
          [
            [
              88.3,
              27.55
            ],
            [
              88.45,
              27.55
            ],
            [
              88.45,
              27.75
            ],
            [
              88.3,
              27.75
            ],
            [
              88.3,
              27.55
            ]
          ]
        ]
      }
    },
    {
      "type": "Feature",
      "properties": {
        "zone": "Zone 2",
        "risk": "Med",
        "rain_mm": 4.7,
        "slope_class": "High",
        "note": "Risk alert, not a prediction. Glacial lake outbursts are not rain-driven and are not covered."
      },
      "geometry": {
        "type": "Polygon",
        "coordinates": [
          [
            [
              88.45,
              27.55
            ],
            [
              88.6,
              27.55
            ],
            [
              88.6,
              27.75
            ],
            [
              88.45,
              27.75
            ],
            [
              88.45,
              27.55
            ]
          ]
        ]
      }
    },
    {
      "type": "Feature",
      "properties": {
        "zone": "Zone 3",
        "risk": "Med",
        "rain_mm": 1.6,
        "slope_class": "High",
        "note": "Risk alert, not a prediction. Glacial lake outbursts are not rain-driven and are not covered."
      },
      "geometry": {
        "type": "Polygon",
        "coordinates": [
          [
            [
              88.6,
              27.55
            ],
            [
              88.75,
              27.55
            ],
            [
              88.75,
              27.75
            ],
            [
              88.6,
              27.75
            ],
            [
              88.6,
              27.55
            ]
          ]
        ]
      }
    },
    {
      "type": "Feature",
      "properties": {
        "zone": "Zone 4",
        "risk": "High",
        "rain_mm": 7.0,
        "slope_class": "High",
        "note": "Risk alert, not a prediction. Glacial lake outbursts are not rain-driven and are not covered."
      },
      "geometry": {
        "type": "Polygon",
        "coordinates": [
          [
            [
              88.3,
              27.35
            ],
            [
              88.45,
              27.35
            ],
            [
              88.45,
              27.55
            ],
            [
              88.3,
              27.55
            ],
            [
              88.3,
              27.35
            ]
          ]
        ]
      }
    },
    {
      "type": "Feature",
      "properties": {
        "zone": "Zone 5",
        "risk": "Low",
        "rain_mm": 3.1,
        "slope_class": "Med",
        "note": "Risk alert, not a prediction. Glacial lake outbursts are not rain-driven and are not covered."
      },
      "geometry": {
        "type": "Polygon",
        "coordinates": [
          [
            [
              88.45,
              27.35
            ],
            [
              88.6,
              27.35
            ],
            [
              88.6,
              27.55
            ],
            [
              88.45,
              27.55
            ],
            [
              88.45,
              27.35
            ]
          ]
        ]
      }
    },
    {
      "type": "Feature",
      "properties": {
        "zone": "Zone 6",
        "risk": "High",
        "rain_mm": 8.1,
        "slope_class": "High",
        "note": "Risk alert, not a prediction. Glacial lake outbursts are not rain-driven and are not covered."
      },
      "geometry": {
        "type": "Polygon",
        "coordinates": [
          [
            [
              88.6,
              27.35
            ],
            [
              88.75,
              27.35
            ],
            [
              88.75,
              27.55
            ],
            [
              88.6,
              27.55
            ],
            [
              88.6,
              27.35
            ]
          ]
        ]
      }
    },
    {
      "type": "Feature",
      "properties": {
        "zone": "Zone 7",
        "risk": "Med",
        "rain_mm": 13.5,
        "slope_class": "Med",
        "note": "Risk alert, not a prediction. Glacial lake outbursts are not rain-driven and are not covered."
      },
      "geometry": {
        "type": "Polygon",
        "coordinates": [
          [
            [
              88.3,
              27.15
            ],
            [
              88.45,
              27.15
            ],
            [
              88.45,
              27.35
            ],
            [
              88.3,
              27.35
            ],
            [
              88.3,
              27.15
            ]
          ]
        ]
      }
    },
    {
      "type": "Feature",
      "properties": {
        "zone": "Zone 8",
        "risk": "Low",
        "rain_mm": 1.4,
        "slope_class": "Med",
        "note": "Risk alert, not a prediction. Glacial lake outbursts are not rain-driven and are not covered."
      },
      "geometry": {
        "type": "Polygon",
        "coordinates": [
          [
            [
              88.45,
              27.15
            ],
            [
              88.6,
              27.15
            ],
            [
              88.6,
              27.35
            ],
            [
              88.45,
              27.35
            ],
            [
              88.45,
              27.15
            ]
          ]
        ]
      }
    },
    {
      "type": "Feature",
      "properties": {
        "zone": "Zone 9",
        "risk": "Med",
        "rain_mm": 14.9,
        "slope_class": "Med",
        "note": "Risk alert, not a prediction. Glacial lake outbursts are not rain-driven and are not covered."
      },
      "geometry": {
        "type": "Polygon",
        "coordinates": [
          [
            [
              88.6,
              27.15
            ],
            [
              88.75,
              27.15
            ],
            [
              88.75,
              27.35
            ],
            [
              88.6,
              27.35
            ],
            [
              88.6,
              27.15
            ]
          ]
        ]
      }
    }
  ]
}