{
"type": "FeatureCollection",
"name": "safe_zones",
"crs": { "type": "name", "properties": { "name": "urn:ogc:def:crs:OGC:1.3:CRS84" } },
"features": [
{ "type": "Feature", "properties": { "name": "Unnamed settlement", "type": "hospital", "lat": 27.331341, "lon": 88.613586 }, "geometry": { "type": "Point", "coordinates": [ 88.6135864, 27.3313407 ] } },
{ "type": "Feature", "properties": { "name": "Government General Hospital Blood Bank - Namchi", "type": "hospital", "lat": 27.165504, "lon": 88.360583 }, "geometry": { "type": "Point", "coordinates": [ 88.360583, 27.1655039 ] } },
{ "type": "Feature", "properties": { "name": "Central Referral Hospital", "type": "hospital", "lat": 27.316364, "lon": 88.597583 }, "geometry": { "type": "Point", "coordinates": [ 88.5975829, 27.3163644 ] } },
{ "type": "Feature", "properties": { "name": "District Hospital", "type": "hospital", "lat": 27.171275, "lon": 88.375012 }, "geometry": { "type": "Point", "coordinates": [ 88.3750115, 27.1712753 ] } },
{ "type": "Feature", "properties": { "name": "Aashirwad Clinic", "type": "hospital", "lat": 27.313034, "lon": 88.596702 }, "geometry": { "type": "Point", "coordinates": [ 88.5967021, 27.3130337 ] } },
{ "type": "Feature", "properties": { "name": "Dhristi Eye Clinic", "type": "hospital", "lat": 27.175155, "lon": 88.529319 }, "geometry": { "type": "Point", "coordinates": [ 88.529319, 27.175155 ] } },
{ "type": "Feature", "properties": { "name": "Lachen Hospital", "type": "hospital", "lat": 27.729602, "lon": 88.550892 }, "geometry": { "type": "Point", "coordinates": [ 88.5508921, 27.7296019 ] } },
{ "type": "Feature", "properties": { "name": "Mangan District Hospital", "type": "hospital", "lat": 27.490878, "lon": 88.531877 }, "geometry": { "type": "Point", "coordinates": [ 88.531877, 27.490878 ] } },
{ "type": "Feature", "properties": { "name": "Government Hospital", "type": "hospital", "lat": 27.314817, "lon": 88.597016 }, "geometry": { "type": "Point", "coordinates": [ 88.597016, 27.314817 ] } },
{ "type": "Feature", "properties": { "name": "STNM Hospital", "type": "hospital", "lat": 27.346753, "lon": 88.602736 }, "geometry": { "type": "Point", "coordinates": [ 88.602736188708121, 27.346753115708154 ] } },
{ "type": "Feature", "properties": { "name": "Unnamed settlement", "type": "hospital", "lat": 27.331392, "lon": 88.61357 }, "geometry": { "type": "Point", "coordinates": [ 88.613569928015352, 27.33139223947169 ] } },
{ "type": "Feature", "properties": { "name": "Health & Wellness Center", "type": "hospital", "lat": 27.308821, "lon": 88.364978 }, "geometry": { "type": "Point", "coordinates": [ 88.364977634270218, 27.308820511070092 ] } },
{ "type": "Feature", "properties": { "name": "Rangpo", "type": "shelter", "lat": 27.174436, "lon": 88.53034 }, "geometry": { "type": "Point", "coordinates": [ 88.5303403, 27.1744361 ] } },
{ "type": "Feature", "properties": { "name": "Ravangla", "type": "shelter", "lat": 27.305127, "lon": 88.364472 }, "geometry": { "type": "Point", "coordinates": [ 88.3644723, 27.3051271 ] } },
{ "type": "Feature", "properties": { "name": "Makha", "type": "shelter", "lat": 27.311426, "lon": 88.455179 }, "geometry": { "type": "Point", "coordinates": [ 88.4551789, 27.3114263 ] } },
{ "type": "Feature", "properties": { "name": "Lachen", "type": "shelter", "lat": 27.730614, "lon": 88.549501 }, "geometry": { "type": "Point", "coordinates": [ 88.5495009, 27.7306136 ] } },
{ "type": "Feature", "properties": { "name": "Tarku", "type": "shelter", "lat": 27.234631, "lon": 88.421626 }, "geometry": { "type": "Point", "coordinates": [ 88.4216256, 27.2346306 ] } },
{ "type": "Feature", "properties": { "name": "Unnamed settlement", "type": "shelter", "lat": 27.243121, "lon": 88.66386 }, "geometry": { "type": "Point", "coordinates": [ 88.6638604, 27.2431209 ] } },
{ "type": "Feature", "properties": { "name": "Unnamed settlement", "type": "shelter", "lat": 27.245277, "lon": 88.692772 }, "geometry": { "type": "Point", "coordinates": [ 88.6927724, 27.2452766 ] } },
{ "type": "Feature", "properties": { "name": "Unnamed settlement", "type": "shelter", "lat": 27.258386, "lon": 88.701669 }, "geometry": { "type": "Point", "coordinates": [ 88.7016686, 27.2583857 ] } },
{ "type": "Feature", "properties": { "name": "Unnamed settlement", "type": "shelter", "lat": 27.272355, "lon": 88.512237 }, "geometry": { "type": "Point", "coordinates": [ 88.512237, 27.2723551 ] } },
{ "type": "Feature", "properties": { "name": "Unnamed settlement", "type": "shelter", "lat": 27.273352, "lon": 88.521444 }, "geometry": { "type": "Point", "coordinates": [ 88.5214439, 27.2733522 ] } },
{ "type": "Feature", "properties": { "name": "Pedong", "type": "shelter", "lat": 27.15513, "lon": 88.611796 }, "geometry": { "type": "Point", "coordinates": [ 88.6117963, 27.1551305 ] } },
{ "type": "Feature", "properties": { "name": "Rhenock", "type": "shelter", "lat": 27.174665, "lon": 88.644336 }, "geometry": { "type": "Point", "coordinates": [ 88.6443365, 27.1746652 ] } },
{ "type": "Feature", "properties": { "name": "Unnamed settlement", "type": "shelter", "lat": 27.218533, "lon": 88.66515 }, "geometry": { "type": "Point", "coordinates": [ 88.6651504, 27.218533 ] } },
{ "type": "Feature", "properties": { "name": "Lingthem", "type": "shelter", "lat": 27.522891, "lon": 88.501328 }, "geometry": { "type": "Point", "coordinates": [ 88.5013279, 27.5228907 ] } },
{ "type": "Feature", "properties": { "name": "Tumlong", "type": "shelter", "lat": 27.420167, "lon": 88.579657 }, "geometry": { "type": "Point", "coordinates": [ 88.5796567, 27.4201667 ] } },
{ "type": "Feature", "properties": { "name": "Chungthang", "type": "shelter", "lat": 27.604236, "lon": 88.64652 }, "geometry": { "type": "Point", "coordinates": [ 88.6465196, 27.604236 ] } },
{ "type": "Feature", "properties": { "name": "Golitar", "type": "shelter", "lat": 27.366015, "lon": 88.565358 }, "geometry": { "type": "Point", "coordinates": [ 88.5653575, 27.3660147 ] } }
]
}
