{
"type": "FeatureCollection",
"name": "villages_ranked",
"crs": { "type": "name", "properties": { "name": "urn:ogc:def:crs:OGC:1.3:CRS84" } },
"features": [
{ "type": "Feature", "properties": { "rank": 1, "name": "Lachung", "population": 5000, "score": 6511.19, "reason": "~5000 people (est.), 100% of area changed, access roads mostly blocked, nearest unaffected hospital 19 km away" }, "geometry": { "type": "Point", "coordinates": [ 88.7425876, 27.6897097 ] } },
{ "type": "Feature", "properties": { "rank": 2, "name": "Rongli", "population": 5000, "score": 6151.85, "reason": "~5000 people (est.), 100% of area changed, some access road blocked, nearest unaffected hospital 16 km away" }, "geometry": { "type": "Point", "coordinates": [ 88.70087, 27.20352 ] } },
{ "type": "Feature", "properties": { "rank": 3, "name": "Rangpo", "population": 5000, "score": 5893.88, "reason": "~5000 people (est.), 100% of area changed, some access road blocked, nearest unaffected hospital 7 km away" }, "geometry": { "type": "Point", "coordinates": [ 88.5303403, 27.1744361 ] } },
{ "type": "Feature", "properties": { "rank": 4, "name": "Pakyong", "population": 5000, "score": 5745.43, "reason": "~5000 people (est.), 100% of area changed, some access road blocked, nearest unaffected hospital 7 km away" }, "geometry": { "type": "Point", "coordinates": [ 88.5984989, 27.2436107 ] } },
{ "type": "Feature", "properties": { "rank": 5, "name": "Singtam", "population": 5000, "score": 5736.89, "reason": "~5000 people (est.), 100% of area changed, some access road blocked, nearest unaffected hospital 1 km away" }, "geometry": { "type": "Point", "coordinates": [ 88.4970841, 27.2319975 ] } },
{ "type": "Feature", "properties": { "rank": 6, "name": "Rhenock", "population": 5000, "score": 5722.81, "reason": "~5000 people (est.), 100% of area changed, some access road blocked, nearest unaffected hospital 16 km away" }, "geometry": { "type": "Point", "coordinates": [ 88.6443365, 27.1746652 ] } },
{ "type": "Feature", "properties": { "rank": 7, "name": "Mangan", "population": 5000, "score": 5614.39, "reason": "~5000 people (est.), 100% of area changed, some access road blocked, nearest unaffected hospital 1 km away" }, "geometry": { "type": "Point", "coordinates": [ 88.5355333, 27.5011476 ] } },
{ "type": "Feature", "properties": { "rank": 8, "name": "Lachen", "population": 5000, "score": 5340.67, "reason": "~5000 people (est.), 100% of area changed, some access road blocked, nearest unaffected hospital 0 km away" }, "geometry": { "type": "Point", "coordinates": [ 88.5495009, 27.7306136 ] } },
{ "type": "Feature", "properties": { "rank": 9, "name": "Namchi", "population": 5000, "score": 5259.23, "reason": "~5000 people (est.), 100% of area changed, some access road blocked, nearest unaffected hospital 1 km away" }, "geometry": { "type": "Point", "coordinates": [ 88.3651981, 27.1661262 ] } },
{ "type": "Feature", "properties": { "rank": 10, "name": "Ravangla", "population": 5000, "score": 5133.65, "reason": "~5000 people (est.), 100% of area changed, some access road blocked, nearest unaffected hospital 0 km away" }, "geometry": { "type": "Point", "coordinates": [ 88.3644723, 27.3051271 ] } },
{ "type": "Feature", "properties": { "rank": 11, "name": "Chungthang", "population": 400, "score": 547.76, "reason": "~400 people (est.), 100% of area changed, access roads mostly blocked, nearest unaffected hospital 17 km away" }, "geometry": { "type": "Point", "coordinates": [ 88.6465196, 27.604236 ] } },
{ "type": "Feature", "properties": { "rank": 12, "name": "Lingzya", "population": 400, "score": 509.19, "reason": "~400 people (est.), 100% of area changed, access roads mostly blocked, nearest unaffected hospital 11 km away" }, "geometry": { "type": "Point", "coordinates": [ 88.4534305, 27.5564446 ] } },
{ "type": "Feature", "properties": { "rank": 13, "name": "Unnamed settlement", "population": 400, "score": 505.18, "reason": "~400 people (est.), 100% of area changed, access roads mostly blocked, nearest unaffected hospital 11 km away" }, "geometry": { "type": "Point", "coordinates": [ 88.7135163, 27.2797556 ] } },
{ "type": "Feature", "properties": { "rank": 14, "name": "Kyangsala", "population": 400, "score": 479.98, "reason": "~400 people (est.), 100% of area changed, some access road blocked, nearest unaffected hospital 10 km away" }, "geometry": { "type": "Point", "coordinates": [ 88.71323, 27.36694 ] } },
{ "type": "Feature", "properties": { "rank": 15, "name": "Unnamed settlement", "population": 400, "score": 475.53, "reason": "~400 people (est.), 100% of area changed, some access road blocked, nearest unaffected hospital 13 km away" }, "geometry": { "type": "Point", "coordinates": [ 88.6636484, 27.2131137 ] } },
{ "type": "Feature", "properties": { "rank": 16, "name": "Unnamed settlement", "population": 400, "score": 473.56, "reason": "~400 people (est.), 100% of area changed, some access road blocked, nearest unaffected hospital 12 km away" }, "geometry": { "type": "Point", "coordinates": [ 88.6651504, 27.218533 ] } },
{ "type": "Feature", "properties": { "rank": 17, "name": "Rorithang", "population": 400, "score": 473.47, "reason": "~400 people (est.), 100% of area changed, some access road blocked, nearest unaffected hospital 12 km away" }, "geometry": { "type": "Point", "coordinates": [ 88.61161, 27.19666 ] } },
{ "type": "Feature", "properties": { "rank": 18, "name": "Unnamed settlement", "population": 400, "score": 470.98, "reason": "~400 people (est.), 100% of area changed, some access road blocked, nearest unaffected hospital 9 km away" }, "geometry": { "type": "Point", "coordinates": [ 88.650971, 27.2427477 ] } },
{ "type": "Feature", "properties": { "rank": 19, "name": "Nanga", "population": 400, "score": 460.93, "reason": "~400 people (est.), 100% of area changed, some access road blocked, nearest unaffected hospital 10 km away" }, "geometry": { "type": "Point", "coordinates": [ 88.6220462, 27.5409131 ] } },
{ "type": "Feature", "properties": { "rank": 20, "name": "Unnamed settlement", "population": 400, "score": 460.24, "reason": "~400 people (est.), 100% of area changed, some access road blocked, nearest unaffected hospital 10 km away" }, "geometry": { "type": "Point", "coordinates": [ 88.6638604, 27.2431209 ] } },
{ "type": "Feature", "properties": { "rank": 21, "name": "Gnon-Sangdong, Lower Dzongu", "population": 400, "score": 459.0, "reason": "~400 people (est.), 100% of area changed, some access road blocked, nearest unaffected hospital 5 km away" }, "geometry": { "type": "Point", "coordinates": [ 88.5033626, 27.4542991 ] } },
{ "type": "Feature", "properties": { "rank": 22, "name": "Lingmoo", "population": 400, "score": 458.95, "reason": "~400 people (est.), 100% of area changed, some access road blocked, nearest unaffected hospital 11 km away" }, "geometry": { "type": "Point", "coordinates": [ 88.4709157, 27.3385259 ] } },
{ "type": "Feature", "properties": { "rank": 23, "name": "Dikchu", "population": 400, "score": 457.29, "reason": "~400 people (est.), 100% of area changed, some access road blocked, nearest unaffected hospital 10 km away" }, "geometry": { "type": "Point", "coordinates": [ 88.5224236, 27.4022231 ] } },
{ "type": "Feature", "properties": { "rank": 24, "name": "Passingdong", "population": 400, "score": 455.98, "reason": "~400 people (est.), 100% of area changed, some access road blocked, nearest unaffected hospital 4 km away" }, "geometry": { "type": "Point", "coordinates": [ 88.5143684, 27.5280875 ] } },
{ "type": "Feature", "properties": { "rank": 25, "name": "Sangkalang", "population": 400, "score": 455.54, "reason": "~400 people (est.), 100% of area changed, some access road blocked, nearest unaffected hospital 2 km away" }, "geometry": { "type": "Point", "coordinates": [ 88.5294268, 27.5068256 ] } },
{ "type": "Feature", "properties": { "rank": 26, "name": "Takchang", "population": 400, "score": 453.6, "reason": "~400 people (est.), 100% of area changed, some access road blocked, nearest unaffected hospital 11 km away" }, "geometry": { "type": "Point", "coordinates": [ 88.6341557, 27.2156685 ] } },
{ "type": "Feature", "properties": { "rank": 27, "name": "Reshi", "population": 400, "score": 452.31, "reason": "~400 people (est.), 100% of area changed, some access road blocked, nearest unaffected hospital 9 km away" }, "geometry": { "type": "Point", "coordinates": [ 88.3054235, 27.2218926 ] } },
{ "type": "Feature", "properties": { "rank": 28, "name": "Makha", "population": 400, "score": 452.26, "reason": "~400 people (est.), 100% of area changed, some access road blocked, nearest unaffected hospital 9 km away" }, "geometry": { "type": "Point", "coordinates": [ 88.4551789, 27.3114263 ] } },
{ "type": "Feature", "properties": { "rank": 29, "name": "Raley", "population": 400, "score": 449.67, "reason": "~400 people (est.), 100% of area changed, some access road blocked, nearest unaffected hospital 11 km away" }, "geometry": { "type": "Point", "coordinates": [ 88.486815, 27.346385 ] } },
{ "type": "Feature", "properties": { "rank": 30, "name": "Gnon", "population": 400, "score": 449.64, "reason": "~400 people (est.), 100% of area changed, some access road blocked, nearest unaffected hospital 6 km away" }, "geometry": { "type": "Point", "coordinates": [ 88.5055448, 27.4468505 ] } },
{ "type": "Feature", "properties": { "rank": 31, "name": "Samdong", "population": 400, "score": 449.62, "reason": "~400 people (est.), 100% of area changed, some access road blocked, nearest unaffected hospital 9 km away" }, "geometry": { "type": "Point", "coordinates": [ 88.5136592, 27.3762929 ] } },
{ "type": "Feature", "properties": { "rank": 32, "name": "Rongek", "population": 400, "score": 448.25, "reason": "~400 people (est.), 100% of area changed, some access road blocked, nearest unaffected hospital 4 km away" }, "geometry": { "type": "Point", "coordinates": [ 88.6504626, 27.3459444 ] } },
{ "type": "Feature", "properties": { "rank": 33, "name": "Simchuthang", "population": 400, "score": 446.83, "reason": "~400 people (est.), 100% of area changed, some access road blocked, nearest unaffected hospital 5 km away" }, "geometry": { "type": "Point", "coordinates": [ 88.4505706, 27.2441608 ] } },
{ "type": "Feature", "properties": { "rank": 34, "name": "Sentam", "population": 400, "score": 446.12, "reason": "~400 people (est.), 100% of area changed, some access road blocked, nearest unaffected hospital 3 km away" }, "geometry": { "type": "Point", "coordinates": [ 88.5491178, 27.5171438 ] } },
{ "type": "Feature", "properties": { "rank": 35, "name": "Burdāng", "population": 400, "score": 445.58, "reason": "~400 people (est.), 100% of area changed, some access road blocked, nearest unaffected hospital 1 km away" }, "geometry": { "type": "Point", "coordinates": [ 88.492303, 27.217871 ] } },
{ "type": "Feature", "properties": { "rank": 36, "name": "Sudur", "population": 400, "score": 443.61, "reason": "~400 people (est.), 100% of area changed, some access road blocked, nearest unaffected hospital 3 km away" }, "geometry": { "type": "Point", "coordinates": [ 88.5113495, 27.4734105 ] } },
{ "type": "Feature", "properties": { "rank": 37, "name": "Damthang", "population": 400, "score": 436.06, "reason": "~400 people (est.), 100% of area changed, some access road blocked, nearest unaffected hospital 7 km away" }, "geometry": { "type": "Point", "coordinates": [ 88.3894686, 27.2294294 ] } },
{ "type": "Feature", "properties": { "rank": 38, "name": "Bringbong", "population": 400, "score": 433.96, "reason": "~400 people (est.), 100% of area changed, some access road blocked, nearest unaffected hospital 2 km away" }, "geometry": { "type": "Point", "coordinates": [ 88.5214453, 27.4775416 ] } },
{ "type": "Feature", "properties": { "rank": 39, "name": "Tarku", "population": 400, "score": 433.67, "reason": "~400 people (est.), 100% of area changed, some access road blocked, nearest unaffected hospital 7 km away" }, "geometry": { "type": "Point", "coordinates": [ 88.4216256, 27.2346306 ] } },
{ "type": "Feature", "properties": { "rank": 40, "name": "Rapchyong", "population": 400, "score": 432.16, "reason": "~400 people (est.), 100% of area changed, some access road blocked, nearest unaffected hospital 3 km away" }, "geometry": { "type": "Point", "coordinates": [ 88.5088389, 27.4700408 ] } },
{ "type": "Feature", "properties": { "rank": 41, "name": "Assangthang", "population": 400, "score": 425.23, "reason": "~400 people (est.), 100% of area changed, some access road blocked, nearest unaffected hospital 5 km away" }, "geometry": { "type": "Point", "coordinates": [ 88.3285701, 27.1550385 ] } },
{ "type": "Feature", "properties": { "rank": 42, "name": "Phong", "population": 400, "score": 424.8, "reason": "~400 people (est.), 100% of area changed, some access road blocked, nearest unaffected hospital 6 km away" }, "geometry": { "type": "Point", "coordinates": [ 88.4374753, 27.1541356 ] } },
{ "type": "Feature", "properties": { "rank": 43, "name": "Pabong", "population": 400, "score": 423.92, "reason": "~400 people (est.), 100% of area changed, some access road blocked, nearest unaffected hospital 5 km away" }, "geometry": { "type": "Point", "coordinates": [ 88.4467864, 27.2284638 ] } },
{ "type": "Feature", "properties": { "rank": 44, "name": "Yangang", "population": 400, "score": 416.85, "reason": "~400 people (est.), 100% of area changed, some access road blocked, nearest unaffected hospital 5 km away" }, "geometry": { "type": "Point", "coordinates": [ 88.4143849, 27.2948923 ] } },
{ "type": "Feature", "properties": { "rank": 45, "name": "Unnamed settlement", "population": 100, "score": 120.52, "reason": "~100 people (est.), 100% of area changed, some access road blocked, nearest unaffected hospital 11 km away" }, "geometry": { "type": "Point", "coordinates": [ 88.6969547, 27.2605558 ] } },
{ "type": "Feature", "properties": { "rank": 46, "name": "Unnamed settlement", "population": 100, "score": 119.19, "reason": "~100 people (est.), 100% of area changed, some access road blocked, nearest unaffected hospital 8 km away" }, "geometry": { "type": "Point", "coordinates": [ 88.6534242, 27.2593259 ] } },
{ "type": "Feature", "properties": { "rank": 47, "name": "Unnamed settlement", "population": 100, "score": 118.08, "reason": "~100 people (est.), 100% of area changed, some access road blocked, nearest unaffected hospital 12 km away" }, "geometry": { "type": "Point", "coordinates": [ 88.7016686, 27.2583857 ] } },
{ "type": "Feature", "properties": { "rank": 48, "name": "Unnamed settlement", "population": 100, "score": 117.9, "reason": "~100 people (est.), 100% of area changed, some access road blocked, nearest unaffected hospital 13 km away" }, "geometry": { "type": "Point", "coordinates": [ 88.6725372, 27.2170208 ] } },
{ "type": "Feature", "properties": { "rank": 49, "name": "Unnamed settlement", "population": 100, "score": 117.61, "reason": "~100 people (est.), 100% of area changed, some access road blocked, nearest unaffected hospital 8 km away" }, "geometry": { "type": "Point", "coordinates": [ 88.6518908, 27.255628 ] } },
{ "type": "Feature", "properties": { "rank": 50, "name": "Unnamed settlement", "population": 100, "score": 116.88, "reason": "~100 people (est.), 100% of area changed, some access road blocked, nearest unaffected hospital 9 km away" }, "geometry": { "type": "Point", "coordinates": [ 88.6606295, 27.2561488 ] } },
{ "type": "Feature", "properties": { "rank": 51, "name": "Unnamed settlement", "population": 100, "score": 115.73, "reason": "~100 people (est.), 100% of area changed, some access road blocked, nearest unaffected hospital 10 km away" }, "geometry": { "type": "Point", "coordinates": [ 88.6714381, 27.2455074 ] } },
{ "type": "Feature", "properties": { "rank": 52, "name": "Unnamed settlement", "population": 100, "score": 114.91, "reason": "~100 people (est.), 100% of area changed, some access road blocked, nearest unaffected hospital 12 km away" }, "geometry": { "type": "Point", "coordinates": [ 88.6927724, 27.2452766 ] } },
{ "type": "Feature", "properties": { "rank": 53, "name": "Sakyong", "population": 100, "score": 113.25, "reason": "~100 people (est.), 100% of area changed, some access road blocked, nearest unaffected hospital 15 km away" }, "geometry": { "type": "Point", "coordinates": [ 88.4082309, 27.56967 ] } },
{ "type": "Feature", "properties": { "rank": 54, "name": "Unnamed settlement", "population": 100, "score": 112.32, "reason": "~100 people (est.), 100% of area changed, some access road blocked, nearest unaffected hospital 11 km away" }, "geometry": { "type": "Point", "coordinates": [ 88.6717038, 27.2363245 ] } },
{ "type": "Feature", "properties": { "rank": 55, "name": "Unnamed settlement", "population": 100, "score": 110.95, "reason": "~100 people (est.), 100% of area changed, some access road blocked, nearest unaffected hospital 4 km away" }, "geometry": { "type": "Point", "coordinates": [ 88.5228121, 27.2567255 ] } },
{ "type": "Feature", "properties": { "rank": 56, "name": "Tumlong", "population": 100, "score": 109.86, "reason": "~100 people (est.), 100% of area changed, some access road blocked, nearest unaffected hospital 8 km away" }, "geometry": { "type": "Point", "coordinates": [ 88.5796567, 27.4201667 ] } },
{ "type": "Feature", "properties": { "rank": 57, "name": "Unnamed settlement", "population": 100, "score": 109.58, "reason": "~100 people (est.), 100% of area changed, some access road blocked, nearest unaffected hospital 2 km away" }, "geometry": { "type": "Point", "coordinates": [ 88.5875269, 27.3420595 ] } },
{ "type": "Feature", "properties": { "rank": 58, "name": "Unnamed settlement", "population": 100, "score": 105.65, "reason": "~100 people (est.), 100% of area changed, some access road blocked, nearest unaffected hospital 6 km away" }, "geometry": { "type": "Point", "coordinates": [ 88.5214439, 27.2733522 ] } },
{ "type": "Feature", "properties": { "rank": 59, "name": "Unnamed settlement", "population": 100, "score": 105.24, "reason": "~100 people (est.), 100% of area changed, some access road blocked, nearest unaffected hospital 5 km away" }, "geometry": { "type": "Point", "coordinates": [ 88.512237, 27.2723551 ] } },
{ "type": "Feature", "properties": { "rank": 60, "name": "Lingthem", "population": 400, "score": 57.79, "reason": "~400 people (est.), 0% of area changed, some access road blocked, nearest unaffected hospital 5 km away" }, "geometry": { "type": "Point", "coordinates": [ 88.5013279, 27.5228907 ] } },
{ "type": "Feature", "properties": { "rank": 61, "name": "Penlong", "population": 400, "score": 14.18, "reason": "~400 people (est.), 0% of area changed, some access road blocked, nearest unaffected hospital 3 km away" }, "geometry": { "type": "Point", "coordinates": [ 88.6024403, 27.3725105 ] } },
{ "type": "Feature", "properties": { "rank": 62, "name": "Unnamed settlement", "population": 100, "score": 12.4, "reason": "~100 people (est.), 0% of area changed, some access road blocked, nearest unaffected hospital 11 km away" }, "geometry": { "type": "Point", "coordinates": [ 88.6795623, 27.2376725 ] } },
{ "type": "Feature", "properties": { "rank": 63, "name": "Unnamed settlement", "population": 100, "score": 8.31, "reason": "~100 people (est.), 0% of area changed, some access road blocked, nearest unaffected hospital 4 km away" }, "geometry": { "type": "Point", "coordinates": [ 88.5137134, 27.2567621 ] } }
]
}
