{
"type": "FeatureCollection",
"name": "risk_alerts",
"crs": { "type": "name", "properties": { "name": "urn:ogc:def:crs:OGC:1.3:CRS84" } },
"features": [
{ "type": "Feature", "properties": { "name": "Simchuthang", "risk_level": "Medium", "risk_score": 55.9, "slope_deg": 41.1, "forecast_rain_24h_mm": 16.8, "forecast_rain_7d_mm": 36.5, "rationale": "Moderate Risk Alert: Possible localized slope slumping and road debris. Monitor access routes.", "population": 1396 }, "geometry": { "type": "Point", "coordinates": [ 88.4505706, 27.2441608 ] } },
{ "type": "Feature", "properties": { "name": "Sangkalang", "risk_level": "Medium", "risk_score": 55.9, "slope_deg": 36.4, "forecast_rain_24h_mm": 16.8, "forecast_rain_7d_mm": 36.5, "rationale": "Moderate Risk Alert: Possible localized slope slumping and road debris. Monitor access routes.", "population": 1412 }, "geometry": { "type": "Point", "coordinates": [ 88.5294268, 27.5068256 ] } },
{ "type": "Feature", "properties": { "name": "Kyangsala", "risk_level": "Medium", "risk_score": 55.9, "slope_deg": 35.7, "forecast_rain_24h_mm": 16.8, "forecast_rain_7d_mm": 36.5, "rationale": "Moderate Risk Alert: Possible localized slope slumping and road debris. Monitor access routes.", "population": 1251 }, "geometry": { "type": "Point", "coordinates": [ 88.71323, 27.36694 ] } },
{ "type": "Feature", "properties": { "name": "Lingzya", "risk_level": "Medium", "risk_score": 53.4, "slope_deg": 32.4, "forecast_rain_24h_mm": 16.8, "forecast_rain_7d_mm": 36.5, "rationale": "Moderate Risk Alert: Possible localized slope slumping and road debris. Monitor access routes.", "population": 1348 }, "geometry": { "type": "Point", "coordinates": [ 88.4534305, 27.5564446 ] } },
{ "type": "Feature", "properties": { "name": "Burdāng", "risk_level": "Medium", "risk_score": 49.0, "slope_deg": 28.0, "forecast_rain_24h_mm": 16.8, "forecast_rain_7d_mm": 36.5, "rationale": "Moderate Risk Alert: Possible localized slope slumping and road debris. Monitor access routes.", "population": 1351 }, "geometry": { "type": "Point", "coordinates": [ 88.492303, 27.217871 ] } },
{ "type": "Feature", "properties": { "name": "Nanga", "risk_level": "Medium", "risk_score": 48.9, "slope_deg": 28.0, "forecast_rain_24h_mm": 16.8, "forecast_rain_7d_mm": 36.5, "rationale": "Moderate Risk Alert: Possible localized slope slumping and road debris. Monitor access routes.", "population": 1279 }, "geometry": { "type": "Point", "coordinates": [ 88.6220462, 27.5409131 ] } },
{ "type": "Feature", "properties": { "name": "Gnon", "risk_level": "Medium", "risk_score": 48.9, "slope_deg": 27.9, "forecast_rain_24h_mm": 16.8, "forecast_rain_7d_mm": 36.5, "rationale": "Moderate Risk Alert: Possible localized slope slumping and road debris. Monitor access routes.", "population": 1373 }, "geometry": { "type": "Point", "coordinates": [ 88.5055448, 27.4468505 ] } },
{ "type": "Feature", "properties": { "name": "Yangang", "risk_level": "Medium", "risk_score": 48.8, "slope_deg": 27.8, "forecast_rain_24h_mm": 16.8, "forecast_rain_7d_mm": 36.5, "rationale": "Moderate Risk Alert: Possible localized slope slumping and road debris. Monitor access routes.", "population": 1341 }, "geometry": { "type": "Point", "coordinates": [ 88.4143849, 27.2948923 ] } },
{ "type": "Feature", "properties": { "name": "Pabong", "risk_level": "Medium", "risk_score": 48.3, "slope_deg": 27.3, "forecast_rain_24h_mm": 16.8, "forecast_rain_7d_mm": 36.5, "rationale": "Moderate Risk Alert: Possible localized slope slumping and road debris. Monitor access routes.", "population": 1401 }, "geometry": { "type": "Point", "coordinates": [ 88.4467864, 27.2284638 ] } },
{ "type": "Feature", "properties": { "name": "Damthang", "risk_level": "Medium", "risk_score": 48.1, "slope_deg": 27.1, "forecast_rain_24h_mm": 16.8, "forecast_rain_7d_mm": 36.5, "rationale": "Moderate Risk Alert: Possible localized slope slumping and road debris. Monitor access routes.", "population": 1438 }, "geometry": { "type": "Point", "coordinates": [ 88.3894686, 27.2294294 ] } },
{ "type": "Feature", "properties": { "name": "Takchang", "risk_level": "Medium", "risk_score": 47.5, "slope_deg": 26.6, "forecast_rain_24h_mm": 16.8, "forecast_rain_7d_mm": 36.5, "rationale": "Moderate Risk Alert: Possible localized slope slumping and road debris. Monitor access routes.", "population": 1347 }, "geometry": { "type": "Point", "coordinates": [ 88.6341557, 27.2156685 ] } },
{ "type": "Feature", "properties": { "name": "Phong", "risk_level": "Medium", "risk_score": 46.9, "slope_deg": 26.0, "forecast_rain_24h_mm": 16.8, "forecast_rain_7d_mm": 36.5, "rationale": "Moderate Risk Alert: Possible localized slope slumping and road debris. Monitor access routes.", "population": 1365 }, "geometry": { "type": "Point", "coordinates": [ 88.4374753, 27.1541356 ] } },
{ "type": "Feature", "properties": { "name": "Unnamed", "risk_level": "Medium", "risk_score": 46.8, "slope_deg": 25.9, "forecast_rain_24h_mm": 16.8, "forecast_rain_7d_mm": 36.5, "rationale": "Moderate Risk Alert: Possible localized slope slumping and road debris. Monitor access routes.", "population": 415 }, "geometry": { "type": "Point", "coordinates": [ 88.6725372, 27.2170208 ] } },
{ "type": "Feature", "properties": { "name": "Assangthang", "risk_level": "Medium", "risk_score": 46.1, "slope_deg": 25.1, "forecast_rain_24h_mm": 16.8, "forecast_rain_7d_mm": 36.5, "rationale": "Moderate Risk Alert: Possible localized slope slumping and road debris. Monitor access routes.", "population": 1285 }, "geometry": { "type": "Point", "coordinates": [ 88.3285701, 27.1550385 ] } },
{ "type": "Feature", "properties": { "name": "Sakyong", "risk_level": "Medium", "risk_score": 45.9, "slope_deg": 25.0, "forecast_rain_24h_mm": 16.8, "forecast_rain_7d_mm": 36.5, "rationale": "Moderate Risk Alert: Possible localized slope slumping and road debris. Monitor access routes.", "population": 498 }, "geometry": { "type": "Point", "coordinates": [ 88.4082309, 27.56967 ] } },
{ "type": "Feature", "properties": { "name": "Mangan", "risk_level": "Medium", "risk_score": 45.4, "slope_deg": 24.5, "forecast_rain_24h_mm": 16.8, "forecast_rain_7d_mm": 36.5, "rationale": "Moderate Risk Alert: Possible localized slope slumping and road debris. Monitor access routes.", "population": 5000 }, "geometry": { "type": "Point", "coordinates": [ 88.5355333, 27.5011476 ] } },
{ "type": "Feature", "properties": { "name": "Unnamed", "risk_level": "Medium", "risk_score": 44.5, "slope_deg": 23.6, "forecast_rain_24h_mm": 16.8, "forecast_rain_7d_mm": 36.5, "rationale": "Moderate Risk Alert: Possible localized slope slumping and road debris. Monitor access routes.", "population": 487 }, "geometry": { "type": "Point", "coordinates": [ 88.6606295, 27.2561488 ] } },
{ "type": "Feature", "properties": { "name": "Unnamed", "risk_level": "Medium", "risk_score": 44.4, "slope_deg": 23.5, "forecast_rain_24h_mm": 16.8, "forecast_rain_7d_mm": 36.5, "rationale": "Moderate Risk Alert: Possible localized slope slumping and road debris. Monitor access routes.", "population": 1417 }, "geometry": { "type": "Point", "coordinates": [ 88.6636484, 27.2131137 ] } },
{ "type": "Feature", "properties": { "name": "Sudur", "risk_level": "Medium", "risk_score": 44.2, "slope_deg": 23.3, "forecast_rain_24h_mm": 16.8, "forecast_rain_7d_mm": 36.5, "rationale": "Moderate Risk Alert: Possible localized slope slumping and road debris. Monitor access routes.", "population": 1297 }, "geometry": { "type": "Point", "coordinates": [ 88.5113495, 27.4734105 ] } },
{ "type": "Feature", "properties": { "name": "Lingmoo", "risk_level": "Medium", "risk_score": 44.0, "slope_deg": 23.0, "forecast_rain_24h_mm": 16.8, "forecast_rain_7d_mm": 36.5, "rationale": "Moderate Risk Alert: Possible localized slope slumping and road debris. Monitor access routes.", "population": 1344 }, "geometry": { "type": "Point", "coordinates": [ 88.4709157, 27.3385259 ] } },
{ "type": "Feature", "properties": { "name": "Raley", "risk_level": "Medium", "risk_score": 43.9, "slope_deg": 23.0, "forecast_rain_24h_mm": 16.8, "forecast_rain_7d_mm": 36.5, "rationale": "Moderate Risk Alert: Possible localized slope slumping and road debris. Monitor access routes.", "population": 1381 }, "geometry": { "type": "Point", "coordinates": [ 88.486815, 27.346385 ] } },
{ "type": "Feature", "properties": { "name": "Unnamed", "risk_level": "Medium", "risk_score": 43.1, "slope_deg": 22.1, "forecast_rain_24h_mm": 16.8, "forecast_rain_7d_mm": 36.5, "rationale": "Moderate Risk Alert: Possible localized slope slumping and road debris. Monitor access routes.", "population": 394 }, "geometry": { "type": "Point", "coordinates": [ 88.6518908, 27.255628 ] } },
{ "type": "Feature", "properties": { "name": "Namchi", "risk_level": "Medium", "risk_score": 42.8, "slope_deg": 21.9, "forecast_rain_24h_mm": 16.8, "forecast_rain_7d_mm": 36.5, "rationale": "Moderate Risk Alert: Possible localized slope slumping and road debris. Monitor access routes.", "population": 5000 }, "geometry": { "type": "Point", "coordinates": [ 88.3651981, 27.1661262 ] } },
{ "type": "Feature", "properties": { "name": "Rumtek", "risk_level": "Medium", "risk_score": 42.5, "slope_deg": 21.6, "forecast_rain_24h_mm": 16.8, "forecast_rain_7d_mm": 36.5, "rationale": "Moderate Risk Alert: Possible localized slope slumping and road debris. Monitor access routes.", "population": 438 }, "geometry": { "type": "Point", "coordinates": [ 88.5622309, 27.2896125 ] } },
{ "type": "Feature", "properties": { "name": "Penlong", "risk_level": "Medium", "risk_score": 42.4, "slope_deg": 21.5, "forecast_rain_24h_mm": 16.8, "forecast_rain_7d_mm": 36.5, "rationale": "Moderate Risk Alert: Possible localized slope slumping and road debris. Monitor access routes.", "population": 1399 }, "geometry": { "type": "Point", "coordinates": [ 88.6024403, 27.3725105 ] } },
{ "type": "Feature", "properties": { "name": "Unnamed", "risk_level": "Medium", "risk_score": 42.1, "slope_deg": 21.1, "forecast_rain_24h_mm": 16.8, "forecast_rain_7d_mm": 36.5, "rationale": "Moderate Risk Alert: Possible localized slope slumping and road debris. Monitor access routes.", "population": 491 }, "geometry": { "type": "Point", "coordinates": [ 88.6795623, 27.2376725 ] } },
{ "type": "Feature", "properties": { "name": "Rapchyong", "risk_level": "Medium", "risk_score": 42.0, "slope_deg": 21.0, "forecast_rain_24h_mm": 16.8, "forecast_rain_7d_mm": 36.5, "rationale": "Moderate Risk Alert: Possible localized slope slumping and road debris. Monitor access routes.", "population": 1438 }, "geometry": { "type": "Point", "coordinates": [ 88.5088389, 27.4700408 ] } },
{ "type": "Feature", "properties": { "name": "Unnamed", "risk_level": "Medium", "risk_score": 42.0, "slope_deg": 21.0, "forecast_rain_24h_mm": 16.8, "forecast_rain_7d_mm": 36.5, "rationale": "Moderate Risk Alert: Possible localized slope slumping and road debris. Monitor access routes.", "population": 515 }, "geometry": { "type": "Point", "coordinates": [ 88.5228121, 27.2567255 ] } },
{ "type": "Feature", "properties": { "name": "Unnamed", "risk_level": "Medium", "risk_score": 41.7, "slope_deg": 20.8, "forecast_rain_24h_mm": 16.8, "forecast_rain_7d_mm": 36.5, "rationale": "Moderate Risk Alert: Possible localized slope slumping and road debris. Monitor access routes.", "population": 494 }, "geometry": { "type": "Point", "coordinates": [ 88.6969547, 27.2605558 ] } },
{ "type": "Feature", "properties": { "name": "Unnamed", "risk_level": "Medium", "risk_score": 41.1, "slope_deg": 20.1, "forecast_rain_24h_mm": 16.8, "forecast_rain_7d_mm": 36.5, "rationale": "Moderate Risk Alert: Possible localized slope slumping and road debris. Monitor access routes.", "population": 400 }, "geometry": { "type": "Point", "coordinates": [ 88.6717038, 27.2363245 ] } },
{ "type": "Feature", "properties": { "name": "Bringbong", "risk_level": "Medium", "risk_score": 40.9, "slope_deg": 20.0, "forecast_rain_24h_mm": 16.8, "forecast_rain_7d_mm": 36.5, "rationale": "Moderate Risk Alert: Possible localized slope slumping and road debris. Monitor access routes.", "population": 1439 }, "geometry": { "type": "Point", "coordinates": [ 88.5214453, 27.4775416 ] } },
{ "type": "Feature", "properties": { "name": "Unnamed", "risk_level": "Medium", "risk_score": 40.6, "slope_deg": 19.7, "forecast_rain_24h_mm": 16.8, "forecast_rain_7d_mm": 36.5, "rationale": "Moderate Risk Alert: Possible localized slope slumping and road debris. Monitor access routes.", "population": 447 }, "geometry": { "type": "Point", "coordinates": [ 88.6534242, 27.2593259 ] } },
{ "type": "Feature", "properties": { "name": "Unnamed", "risk_level": "Medium", "risk_score": 40.0, "slope_deg": 19.1, "forecast_rain_24h_mm": 16.8, "forecast_rain_7d_mm": 36.5, "rationale": "Moderate Risk Alert: Possible localized slope slumping and road debris. Monitor access routes.", "population": 489 }, "geometry": { "type": "Point", "coordinates": [ 88.6714381, 27.2455074 ] } },
{ "type": "Feature", "properties": { "name": "Rongli", "risk_level": "Medium", "risk_score": 39.6, "slope_deg": 18.7, "forecast_rain_24h_mm": 16.8, "forecast_rain_7d_mm": 36.5, "rationale": "Moderate Risk Alert: Possible localized slope slumping and road debris. Monitor access routes.", "population": 6543 }, "geometry": { "type": "Point", "coordinates": [ 88.70087, 27.20352 ] } },
{ "type": "Feature", "properties": { "name": "Dikchu", "risk_level": "Medium", "risk_score": 39.4, "slope_deg": 18.4, "forecast_rain_24h_mm": 16.8, "forecast_rain_7d_mm": 36.5, "rationale": "Moderate Risk Alert: Possible localized slope slumping and road debris. Monitor access routes.", "population": 1296 }, "geometry": { "type": "Point", "coordinates": [ 88.5224236, 27.4022231 ] } },
{ "type": "Feature", "properties": { "name": "Rongek", "risk_level": "Medium", "risk_score": 38.5, "slope_deg": 17.6, "forecast_rain_24h_mm": 16.8, "forecast_rain_7d_mm": 36.5, "rationale": "Moderate Risk Alert: Possible localized slope slumping and road debris. Monitor access routes.", "population": 1413 }, "geometry": { "type": "Point", "coordinates": [ 88.6504626, 27.3459444 ] } },
{ "type": "Feature", "properties": { "name": "Samdong", "risk_level": "Medium", "risk_score": 38.1, "slope_deg": 17.2, "forecast_rain_24h_mm": 16.8, "forecast_rain_7d_mm": 36.5, "rationale": "Moderate Risk Alert: Possible localized slope slumping and road debris. Monitor access routes.", "population": 1348 }, "geometry": { "type": "Point", "coordinates": [ 88.5136592, 27.3762929 ] } },
{ "type": "Feature", "properties": { "name": "Sentam", "risk_level": "Medium", "risk_score": 37.6, "slope_deg": 16.7, "forecast_rain_24h_mm": 16.8, "forecast_rain_7d_mm": 36.5, "rationale": "Moderate Risk Alert: Possible localized slope slumping and road debris. Monitor access routes.", "population": 1312 }, "geometry": { "type": "Point", "coordinates": [ 88.5491178, 27.5171438 ] } },
{ "type": "Feature", "properties": { "name": "Unnamed", "risk_level": "Medium", "risk_score": 37.2, "slope_deg": 16.3, "forecast_rain_24h_mm": 16.8, "forecast_rain_7d_mm": 36.5, "rationale": "Moderate Risk Alert: Possible localized slope slumping and road debris. Monitor access routes.", "population": 424 }, "geometry": { "type": "Point", "coordinates": [ 88.5137134, 27.2567621 ] } },
{ "type": "Feature", "properties": { "name": "Unnamed", "risk_level": "Medium", "risk_score": 36.9, "slope_deg": 16.0, "forecast_rain_24h_mm": 16.8, "forecast_rain_7d_mm": 36.5, "rationale": "Moderate Risk Alert: Possible localized slope slumping and road debris. Monitor access routes.", "population": 415 }, "geometry": { "type": "Point", "coordinates": [ 88.5875269, 27.3420595 ] } },
{ "type": "Feature", "properties": { "name": "Passingdong", "risk_level": "Medium", "risk_score": 36.5, "slope_deg": 15.5, "forecast_rain_24h_mm": 16.8, "forecast_rain_7d_mm": 36.5, "rationale": "Moderate Risk Alert: Possible localized slope slumping and road debris. Monitor access routes.", "population": 1273 }, "geometry": { "type": "Point", "coordinates": [ 88.5143684, 27.5280875 ] } },
{ "type": "Feature", "properties": { "name": "Unnamed", "risk_level": "Medium", "risk_score": 36.4, "slope_deg": 15.4, "forecast_rain_24h_mm": 16.8, "forecast_rain_7d_mm": 36.5, "rationale": "Moderate Risk Alert: Possible localized slope slumping and road debris. Monitor access routes.", "population": 1386 }, "geometry": { "type": "Point", "coordinates": [ 88.650971, 27.2427477 ] } },
{ "type": "Feature", "properties": { "name": "Unnamed", "risk_level": "Medium", "risk_score": 35.6, "slope_deg": 14.7, "forecast_rain_24h_mm": 16.8, "forecast_rain_7d_mm": 36.5, "rationale": "Moderate Risk Alert: Possible localized slope slumping and road debris. Monitor access routes.", "population": 519 }, "geometry": { "type": "Point", "coordinates": [ 88.7016686, 27.2583857 ] } },
{ "type": "Feature", "properties": { "name": "Lingthem", "risk_level": "Medium", "risk_score": 35.6, "slope_deg": 14.6, "forecast_rain_24h_mm": 16.8, "forecast_rain_7d_mm": 36.5, "rationale": "Moderate Risk Alert: Possible localized slope slumping and road debris. Monitor access routes.", "population": 1291 }, "geometry": { "type": "Point", "coordinates": [ 88.5013279, 27.5228907 ] } },
{ "type": "Feature", "properties": { "name": "Ranipool", "risk_level": "Medium", "risk_score": 35.4, "slope_deg": 14.5, "forecast_rain_24h_mm": 16.8, "forecast_rain_7d_mm": 36.5, "rationale": "Moderate Risk Alert: Possible localized slope slumping and road debris. Monitor access routes.", "population": 4237 }, "geometry": { "type": "Point", "coordinates": [ 88.58963, 27.29416 ] } },
{ "type": "Feature", "properties": { "name": "Unnamed", "risk_level": "Medium", "risk_score": 35.2, "slope_deg": 14.2, "forecast_rain_24h_mm": 16.8, "forecast_rain_7d_mm": 36.5, "rationale": "Moderate Risk Alert: Possible localized slope slumping and road debris. Monitor access routes.", "population": 1286 }, "geometry": { "type": "Point", "coordinates": [ 88.6651504, 27.218533 ] } },
{ "type": "Feature", "properties": { "name": "Unnamed", "risk_level": "Medium", "risk_score": 35.0, "slope_deg": 14.1, "forecast_rain_24h_mm": 16.8, "forecast_rain_7d_mm": 36.5, "rationale": "Moderate Risk Alert: Possible localized slope slumping and road debris. Monitor access routes.", "population": 365 }, "geometry": { "type": "Point", "coordinates": [ 88.512237, 27.2723551 ] } },
{ "type": "Feature", "properties": { "name": "Unnamed", "risk_level": "Low", "risk_score": 34.4, "slope_deg": 13.5, "forecast_rain_24h_mm": 16.8, "forecast_rain_7d_mm": 36.5, "rationale": "Low Risk Alert: Stable topography and low forecast accumulation. Regular monitoring.", "population": 467 }, "geometry": { "type": "Point", "coordinates": [ 88.5214439, 27.2733522 ] } },
{ "type": "Feature", "properties": { "name": "Lachung", "risk_level": "Low", "risk_score": 32.6, "slope_deg": 11.6, "forecast_rain_24h_mm": 16.8, "forecast_rain_7d_mm": 36.5, "rationale": "Low Risk Alert: Stable topography and low forecast accumulation. Regular monitoring.", "population": 6622 }, "geometry": { "type": "Point", "coordinates": [ 88.7425876, 27.6897097 ] } },
{ "type": "Feature", "properties": { "name": "Rangpo", "risk_level": "Low", "risk_score": 31.7, "slope_deg": 10.8, "forecast_rain_24h_mm": 16.8, "forecast_rain_7d_mm": 36.5, "rationale": "Low Risk Alert: Stable topography and low forecast accumulation. Regular monitoring.", "population": 6547 }, "geometry": { "type": "Point", "coordinates": [ 88.5303403, 27.1744361 ] } },
{ "type": "Feature", "properties": { "name": "Unnamed", "risk_level": "Low", "risk_score": 31.6, "slope_deg": 10.6, "forecast_rain_24h_mm": 16.8, "forecast_rain_7d_mm": 36.5, "rationale": "Low Risk Alert: Stable topography and low forecast accumulation. Regular monitoring.", "population": 1382 }, "geometry": { "type": "Point", "coordinates": [ 88.7135163, 27.2797556 ] } },
{ "type": "Feature", "properties": { "name": "Unnamed", "risk_level": "Low", "risk_score": 31.3, "slope_deg": 10.4, "forecast_rain_24h_mm": 16.8, "forecast_rain_7d_mm": 36.5, "rationale": "Low Risk Alert: Stable topography and low forecast accumulation. Regular monitoring.", "population": 1319 }, "geometry": { "type": "Point", "coordinates": [ 88.6638604, 27.2431209 ] } },
{ "type": "Feature", "properties": { "name": "Rorithang", "risk_level": "Low", "risk_score": 30.9, "slope_deg": 10.0, "forecast_rain_24h_mm": 16.8, "forecast_rain_7d_mm": 36.5, "rationale": "Low Risk Alert: Stable topography and low forecast accumulation. Regular monitoring.", "population": 1332 }, "geometry": { "type": "Point", "coordinates": [ 88.61161, 27.19666 ] } },
{ "type": "Feature", "properties": { "name": "Tarku", "risk_level": "Low", "risk_score": 30.9, "slope_deg": 10.0, "forecast_rain_24h_mm": 16.8, "forecast_rain_7d_mm": 36.5, "rationale": "Low Risk Alert: Stable topography and low forecast accumulation. Regular monitoring.", "population": 1412 }, "geometry": { "type": "Point", "coordinates": [ 88.4216256, 27.2346306 ] } },
{ "type": "Feature", "properties": { "name": "Chungthang", "risk_level": "Low", "risk_score": 29.7, "slope_deg": 8.8, "forecast_rain_24h_mm": 16.8, "forecast_rain_7d_mm": 36.5, "rationale": "Low Risk Alert: Stable topography and low forecast accumulation. Regular monitoring.", "population": 1357 }, "geometry": { "type": "Point", "coordinates": [ 88.6465196, 27.604236 ] } },
{ "type": "Feature", "properties": { "name": "Gnon-Sangdong, Lower Dzongu", "risk_level": "Low", "risk_score": 29.7, "slope_deg": 8.7, "forecast_rain_24h_mm": 16.8, "forecast_rain_7d_mm": 36.5, "rationale": "Low Risk Alert: Stable topography and low forecast accumulation. Regular monitoring.", "population": 1425 }, "geometry": { "type": "Point", "coordinates": [ 88.5033626, 27.4542991 ] } },
{ "type": "Feature", "properties": { "name": "Singtam", "risk_level": "Low", "risk_score": 29.6, "slope_deg": 8.7, "forecast_rain_24h_mm": 16.8, "forecast_rain_7d_mm": 36.5, "rationale": "Low Risk Alert: Stable topography and low forecast accumulation. Regular monitoring.", "population": 6589 }, "geometry": { "type": "Point", "coordinates": [ 88.4970841, 27.2319975 ] } },
{ "type": "Feature", "properties": { "name": "Rhenock", "risk_level": "Low", "risk_score": 29.3, "slope_deg": 8.4, "forecast_rain_24h_mm": 16.8, "forecast_rain_7d_mm": 36.5, "rationale": "Low Risk Alert: Stable topography and low forecast accumulation. Regular monitoring.", "population": 6689 }, "geometry": { "type": "Point", "coordinates": [ 88.6443365, 27.1746652 ] } },
{ "type": "Feature", "properties": { "name": "Reshi", "risk_level": "Low", "risk_score": 28.8, "slope_deg": 7.9, "forecast_rain_24h_mm": 16.8, "forecast_rain_7d_mm": 36.5, "rationale": "Low Risk Alert: Stable topography and low forecast accumulation. Regular monitoring.", "population": 1322 }, "geometry": { "type": "Point", "coordinates": [ 88.3054235, 27.2218926 ] } },
{ "type": "Feature", "properties": { "name": "Tumlong", "risk_level": "Low", "risk_score": 28.7, "slope_deg": 7.7, "forecast_rain_24h_mm": 16.8, "forecast_rain_7d_mm": 36.5, "rationale": "Low Risk Alert: Stable topography and low forecast accumulation. Regular monitoring.", "population": 517 }, "geometry": { "type": "Point", "coordinates": [ 88.5796567, 27.4201667 ] } },
{ "type": "Feature", "properties": { "name": "Pedong", "risk_level": "Low", "risk_score": 28.4, "slope_deg": 7.5, "forecast_rain_24h_mm": 16.8, "forecast_rain_7d_mm": 36.5, "rationale": "Low Risk Alert: Stable topography and low forecast accumulation. Regular monitoring.", "population": 1318 }, "geometry": { "type": "Point", "coordinates": [ 88.6117963, 27.1551305 ] } },
{ "type": "Feature", "properties": { "name": "Ravangla", "risk_level": "Low", "risk_score": 27.9, "slope_deg": 7.0, "forecast_rain_24h_mm": 16.8, "forecast_rain_7d_mm": 36.5, "rationale": "Low Risk Alert: Stable topography and low forecast accumulation. Regular monitoring.", "population": 2282 }, "geometry": { "type": "Point", "coordinates": [ 88.3644723, 27.3051271 ] } },
{ "type": "Feature", "properties": { "name": "Majitar", "risk_level": "Low", "risk_score": 26.6, "slope_deg": 5.7, "forecast_rain_24h_mm": 16.8, "forecast_rain_7d_mm": 36.5, "rationale": "Low Risk Alert: Stable topography and low forecast accumulation. Regular monitoring.", "population": 4278 }, "geometry": { "type": "Point", "coordinates": [ 88.5030134, 27.1848025 ] } },
{ "type": "Feature", "properties": { "name": "Pakyong", "risk_level": "Low", "risk_score": 26.2, "slope_deg": 5.2, "forecast_rain_24h_mm": 16.8, "forecast_rain_7d_mm": 36.5, "rationale": "Low Risk Alert: Stable topography and low forecast accumulation. Regular monitoring.", "population": 6520 }, "geometry": { "type": "Point", "coordinates": [ 88.5984989, 27.2436107 ] } },
{ "type": "Feature", "properties": { "name": "Golitar", "risk_level": "Low", "risk_score": 24.3, "slope_deg": 3.4, "forecast_rain_24h_mm": 16.8, "forecast_rain_7d_mm": 36.5, "rationale": "Low Risk Alert: Stable topography and low forecast accumulation. Regular monitoring.", "population": 433 }, "geometry": { "type": "Point", "coordinates": [ 88.5653575, 27.3660147 ] } },
{ "type": "Feature", "properties": { "name": "Unnamed", "risk_level": "Low", "risk_score": 24.2, "slope_deg": 3.2, "forecast_rain_24h_mm": 16.8, "forecast_rain_7d_mm": 36.5, "rationale": "Low Risk Alert: Stable topography and low forecast accumulation. Regular monitoring.", "population": 499 }, "geometry": { "type": "Point", "coordinates": [ 88.6927724, 27.2452766 ] } },
{ "type": "Feature", "properties": { "name": "Lachen", "risk_level": "Low", "risk_score": 21.9, "slope_deg": 1.0, "forecast_rain_24h_mm": 16.8, "forecast_rain_7d_mm": 36.5, "rationale": "Low Risk Alert: Stable topography and low forecast accumulation. Regular monitoring.", "population": 6501 }, "geometry": { "type": "Point", "coordinates": [ 88.5495009, 27.7306136 ] } },
{ "type": "Feature", "properties": { "name": "Makha", "risk_level": "Low", "risk_score": 20.9, "slope_deg": 0.0, "forecast_rain_24h_mm": 16.8, "forecast_rain_7d_mm": 36.5, "rationale": "Low Risk Alert: Stable topography and low forecast accumulation. Regular monitoring.", "population": 1315 }, "geometry": { "type": "Point", "coordinates": [ 88.4551789, 27.3114263 ] } }
]
}
