{
"type": "FeatureCollection",
"name": "safe_zones",
"crs": { "type": "name", "properties": { "name": "urn:ogc:def:crs:OGC:1.3:CRS84" } },
"features": [
{ "type": "Feature", "properties": { "name": "Unnamed", "type": "hospital", "lat": 27.331341, "lon": 88.613586 }, "geometry": { "type": "Point", "coordinates": [ 88.6135864, 27.3313407 ] } },
{ "type": "Feature", "properties": { "name": "Government General Hospital Blood Bank - Namchi", "type": "hospital", "lat": 27.165504, "lon": 88.360583 }, "geometry": { "type": "Point", "coordinates": [ 88.360583, 27.1655039 ] } },
{ "type": "Feature", "properties": { "name": "Central Referral Hospital", "type": "hospital", "lat": 27.316364, "lon": 88.597583 }, "geometry": { "type": "Point", "coordinates": [ 88.5975829, 27.3163644 ] } },
{ "type": "Feature", "properties": { "name": "District Hospital", "type": "hospital", "lat": 27.171275, "lon": 88.375012 }, "geometry": { "type": "Point", "coordinates": [ 88.3750115, 27.1712753 ] } },
{ "type": "Feature", "properties": { "name": "Aashirwad Clinic", "type": "hospital", "lat": 27.313034, "lon": 88.596702 }, "geometry": { "type": "Point", "coordinates": [ 88.5967021, 27.3130337 ] } },
{ "type": "Feature", "properties": { "name": "Dhristi Eye Clinic", "type": "hospital", "lat": 27.175155, "lon": 88.529319 }, "geometry": { "type": "Point", "coordinates": [ 88.529319, 27.175155 ] } },
{ "type": "Feature", "properties": { "name": "Lachen Hospital", "type": "hospital", "lat": 27.729602, "lon": 88.550892 }, "geometry": { "type": "Point", "coordinates": [ 88.5508921, 27.7296019 ] } },
{ "type": "Feature", "properties": { "name": "Mangan District Hospital", "type": "hospital", "lat": 27.490878, "lon": 88.531877 }, "geometry": { "type": "Point", "coordinates": [ 88.531877, 27.490878 ] } },
{ "type": "Feature", "properties": { "name": "Government Hospital", "type": "hospital", "lat": 27.314817, "lon": 88.597016 }, "geometry": { "type": "Point", "coordinates": [ 88.597016, 27.314817 ] } },
{ "type": "Feature", "properties": { "name": "Dr. Sanjog Sharma", "type": "hospital", "lat": 27.336268, "lon": 88.607445 }, "geometry": { "type": "Point", "coordinates": [ 88.6074448, 27.3362683 ] } },
{ "type": "Feature", "properties": { "name": "STNM Hospital", "type": "hospital", "lat": 27.346753, "lon": 88.602736 }, "geometry": { "type": "Point", "coordinates": [ 88.602736188708121, 27.346753115708154 ] } },
{ "type": "Feature", "properties": { "name": "Unnamed", "type": "hospital", "lat": 27.331392, "lon": 88.61357 }, "geometry": { "type": "Point", "coordinates": [ 88.613569928015352, 27.33139223947169 ] } },
{ "type": "Feature", "properties": { "name": "Health & Wellness Center", "type": "hospital", "lat": 27.308821, "lon": 88.364978 }, "geometry": { "type": "Point", "coordinates": [ 88.364977634270218, 27.308820511070092 ] } },
{ "type": "Feature", "properties": { "name": "Lingdum Monastery", "type": "shelter", "lat": 27.330823, "lon": 88.579363 }, "geometry": { "type": "Point", "coordinates": [ 88.5793628, 27.3308234 ] } },
{ "type": "Feature", "properties": { "name": "Rey Monastery", "type": "shelter", "lat": 27.319978, "lon": 88.560429 }, "geometry": { "type": "Point", "coordinates": [ 88.5604294, 27.3199783 ] } },
{ "type": "Feature", "properties": { "name": "High Secondary School", "type": "shelter", "lat": 27.342751, "lon": 88.608474 }, "geometry": { "type": "Point", "coordinates": [ 88.6084736, 27.3427513 ] } },
{ "type": "Feature", "properties": { "name": "Unnamed", "type": "shelter", "lat": 27.327181, "lon": 88.588104 }, "geometry": { "type": "Point", "coordinates": [ 88.5881042, 27.327181 ] } },
{ "type": "Feature", "properties": { "name": "Unnamed", "type": "shelter", "lat": 27.327309, "lon": 88.586467 }, "geometry": { "type": "Point", "coordinates": [ 88.5864674, 27.3273088 ] } },
{ "type": "Feature", "properties": { "name": "Shirdi Sai Mandir", "type": "shelter", "lat": 27.156653, "lon": 88.328732 }, "geometry": { "type": "Point", "coordinates": [ 88.3287322, 27.1566528 ] } },
{ "type": "Feature", "properties": { "name": "Siddheshwara Dham, solophok, namchi", "type": "shelter", "lat": 27.152658, "lon": 88.341335 }, "geometry": { "type": "Point", "coordinates": [ 88.3413348, 27.1526576 ] } },
{ "type": "Feature", "properties": { "name": "Lachen Monastery", "type": "shelter", "lat": 27.730546, "lon": 88.546905 }, "geometry": { "type": "Point", "coordinates": [ 88.5469054, 27.7305455 ] } },
{ "type": "Feature", "properties": { "name": "tingchin gompa", "type": "shelter", "lat": 27.459701, "lon": 88.528933 }, "geometry": { "type": "Point", "coordinates": [ 88.5289332, 27.4597006 ] } },
{ "type": "Feature", "properties": { "name": "Omkāresvar Jyotirlinga", "type": "shelter", "lat": 27.152605, "lon": 88.340891 }, "geometry": { "type": "Point", "coordinates": [ 88.3408906, 27.1526046 ] } },
{ "type": "Feature", "properties": { "name": "Sai Temple", "type": "shelter", "lat": 27.152236, "lon": 88.341158 }, "geometry": { "type": "Point", "coordinates": [ 88.3411585, 27.1522365 ] } },
{ "type": "Feature", "properties": { "name": "Setubandha Rāmesvaram", "type": "shelter", "lat": 27.153045, "lon": 88.340764 }, "geometry": { "type": "Point", "coordinates": [ 88.3407645, 27.1530452 ] } },
{ "type": "Feature", "properties": { "name": "Ghusmesvara Jyotirlinga", "type": "shelter", "lat": 27.152667, "lon": 88.341473 }, "geometry": { "type": "Point", "coordinates": [ 88.3414733, 27.1526667 ] } },
{ "type": "Feature", "properties": { "name": "Sri Nāgesvara Jyotirlinga", "type": "shelter", "lat": 27.153107, "lon": 88.340951 }, "geometry": { "type": "Point", "coordinates": [ 88.3409506, 27.1531071 ] } },
{ "type": "Feature", "properties": { "name": "Kirateshvara Mangkhim", "type": "shelter", "lat": 27.152034, "lon": 88.342181 }, "geometry": { "type": "Point", "coordinates": [ 88.3421814, 27.1520336 ] } },
{ "type": "Feature", "properties": { "name": "Kedāresvara Jyotirlinga", "type": "shelter", "lat": 27.152791, "lon": 88.34155 }, "geometry": { "type": "Point", "coordinates": [ 88.3415503, 27.1527907 ] } },
{ "type": "Feature", "properties": { "name": "Mintogang Monastery", "type": "shelter", "lat": 27.363744, "lon": 88.503382 }, "geometry": { "type": "Point", "coordinates": [ 88.5033823, 27.3637439 ] } },
{ "type": "Feature", "properties": { "name": "Syari government school", "type": "shelter", "lat": 27.296806, "lon": 88.596638 }, "geometry": { "type": "Point", "coordinates": [ 88.5966385, 27.2968055 ] } },
{ "type": "Feature", "properties": { "name": "Hanuman mandir", "type": "shelter", "lat": 27.317462, "lon": 88.596045 }, "geometry": { "type": "Point", "coordinates": [ 88.5960451, 27.3174619 ] } },
{ "type": "Feature", "properties": { "name": "Sikkim Government School Arithang", "type": "shelter", "lat": 27.331713, "lon": 88.608712 }, "geometry": { "type": "Point", "coordinates": [ 88.6087123, 27.3317133 ] } },
{ "type": "Feature", "properties": { "name": "Tibetan settlement and monastery", "type": "shelter", "lat": 27.297308, "lon": 88.364037 }, "geometry": { "type": "Point", "coordinates": [ 88.3640371, 27.2973085 ] } },
{ "type": "Feature", "properties": { "name": "Stupa", "type": "shelter", "lat": 27.309828, "lon": 88.364176 }, "geometry": { "type": "Point", "coordinates": [ 88.3641765, 27.3098276 ] } },
{ "type": "Feature", "properties": { "name": "Doling monastery", "type": "shelter", "lat": 27.287636, "lon": 88.34528 }, "geometry": { "type": "Point", "coordinates": [ 88.3452804, 27.287636 ] } },
{ "type": "Feature", "properties": { "name": "Seven mirror lake and it's gompa", "type": "shelter", "lat": 27.287522, "lon": 88.34592 }, "geometry": { "type": "Point", "coordinates": [ 88.3459204, 27.2875216 ] } },
{ "type": "Feature", "properties": { "name": "Prayer hall", "type": "shelter", "lat": 27.330804, "lon": 88.580765 }, "geometry": { "type": "Point", "coordinates": [ 88.5807653, 27.3308038 ] } },
{ "type": "Feature", "properties": { "name": "Buddhist gate and pagoda", "type": "shelter", "lat": 27.296224, "lon": 88.563795 }, "geometry": { "type": "Point", "coordinates": [ 88.5637949, 27.2962238 ] } },
{ "type": "Feature", "properties": { "name": "Chachhang monastery", "type": "shelter", "lat": 27.333109, "lon": 88.580256 }, "geometry": { "type": "Point", "coordinates": [ 88.5802555, 27.3331088 ] } },
{ "type": "Feature", "properties": { "name": "Hindu temple", "type": "shelter", "lat": 27.34307, "lon": 88.639936 }, "geometry": { "type": "Point", "coordinates": [ 88.6399361, 27.3430696 ] } },
{ "type": "Feature", "properties": { "name": "Monastery gate", "type": "shelter", "lat": 27.418376, "lon": 88.579122 }, "geometry": { "type": "Point", "coordinates": [ 88.5791219, 27.4183761 ] } },
{ "type": "Feature", "properties": { "name": "Pensang monastery", "type": "shelter", "lat": 27.420578, "lon": 88.610432 }, "geometry": { "type": "Point", "coordinates": [ 88.6104315, 27.4205784 ] } },
{ "type": "Feature", "properties": { "name": "Shiva linga", "type": "shelter", "lat": 27.398732, "lon": 88.609489 }, "geometry": { "type": "Point", "coordinates": [ 88.6094893, 27.3987322 ] } },
{ "type": "Feature", "properties": { "name": "Ngadak Thupten Monastery", "type": "shelter", "lat": 27.173987, "lon": 88.370849 }, "geometry": { "type": "Point", "coordinates": [ 88.3708492, 27.1739868 ] } },
{ "type": "Feature", "properties": { "name": "Sambhota Tibetan School", "type": "shelter", "lat": 27.296085, "lon": 88.364298 }, "geometry": { "type": "Point", "coordinates": [ 88.3642977, 27.2960846 ] } },
{ "type": "Feature", "properties": { "name": "Unnamed", "type": "shelter", "lat": 27.238598, "lon": 88.313698 }, "geometry": { "type": "Point", "coordinates": [ 88.3136979, 27.2385979 ] } },
{ "type": "Feature", "properties": { "name": "Unnamed", "type": "shelter", "lat": 27.362089, "lon": 88.566537 }, "geometry": { "type": "Point", "coordinates": [ 88.566537, 27.3620889 ] } },
{ "type": "Feature", "properties": { "name": "Unnamed", "type": "shelter", "lat": 27.358588, "lon": 88.563478 }, "geometry": { "type": "Point", "coordinates": [ 88.5634785, 27.3585881 ] } },
{ "type": "Feature", "properties": { "name": "Unnamed", "type": "shelter", "lat": 27.359225, "lon": 88.565241 }, "geometry": { "type": "Point", "coordinates": [ 88.5652406, 27.3592252 ] } },
{ "type": "Feature", "properties": { "name": "Chorten", "type": "shelter", "lat": 27.336422, "lon": 88.619343 }, "geometry": { "type": "Point", "coordinates": [ 88.6193434, 27.3364218 ] } },
{ "type": "Feature", "properties": { "name": "Hanuman Tok", "type": "shelter", "lat": 27.347969, "lon": 88.628717 }, "geometry": { "type": "Point", "coordinates": [ 88.628716584961552, 27.34796920770955 ] } },
{ "type": "Feature", "properties": { "name": "Thakurbari Hindu Temple", "type": "shelter", "lat": 27.330173, "lon": 88.613166 }, "geometry": { "type": "Point", "coordinates": [ 88.613166150563998, 27.330172629996337 ] } },
{ "type": "Feature", "properties": { "name": "Durga Temple", "type": "shelter", "lat": 27.155792, "lon": 88.61339 }, "geometry": { "type": "Point", "coordinates": [ 88.613390316661139, 27.155792499621946 ] } },
{ "type": "Feature", "properties": { "name": "Rumtek Dharma Chakra Centre", "type": "shelter", "lat": 27.288607, "lon": 88.561558 }, "geometry": { "type": "Point", "coordinates": [ 88.561558089208432, 27.288607408547644 ] } },
{ "type": "Feature", "properties": { "name": "Buddha statue", "type": "shelter", "lat": 27.314395, "lon": 88.363246 }, "geometry": { "type": "Point", "coordinates": [ 88.363245564843538, 27.314395101706918 ] } },
{ "type": "Feature", "properties": { "name": "Shiva", "type": "shelter", "lat": 27.152823, "lon": 88.340989 }, "geometry": { "type": "Point", "coordinates": [ 88.340988650000014, 27.1528227 ] } },
{ "type": "Feature", "properties": { "name": "Unnamed", "type": "shelter", "lat": 27.161218, "lon": 88.354752 }, "geometry": { "type": "Point", "coordinates": [ 88.354751746625638, 27.161217905306462 ] } },
{ "type": "Feature", "properties": { "name": "Unnamed", "type": "shelter", "lat": 27.17998, "lon": 88.379673 }, "geometry": { "type": "Point", "coordinates": [ 88.379672934389362, 27.179979616690677 ] } },
{ "type": "Feature", "properties": { "name": "Guru Padmasambhava", "type": "shelter", "lat": 27.179993, "lon": 88.379686 }, "geometry": { "type": "Point", "coordinates": [ 88.379685729755479, 27.179993000306133 ] } },
{ "type": "Feature", "properties": { "name": "New Ralong Monastery", "type": "shelter", "lat": 27.328557, "lon": 88.334776 }, "geometry": { "type": "Point", "coordinates": [ 88.334775760037957, 27.328556853358396 ] } },
{ "type": "Feature", "properties": { "name": "Old Ralong Monastery", "type": "shelter", "lat": 27.325869, "lon": 88.326078 }, "geometry": { "type": "Point", "coordinates": [ 88.326077953803022, 27.32586854920401 ] } },
{ "type": "Feature", "properties": { "name": "Unnamed", "type": "shelter", "lat": 27.258872, "lon": 88.410491 }, "geometry": { "type": "Point", "coordinates": [ 88.410490899999985, 27.2588716 ] } },
{ "type": "Feature", "properties": { "name": "Unnamed", "type": "shelter", "lat": 27.284319, "lon": 88.563515 }, "geometry": { "type": "Point", "coordinates": [ 88.563515433547209, 27.28431934952755 ] } },
{ "type": "Feature", "properties": { "name": "Old Rumtek Monastry", "type": "shelter", "lat": 27.285976, "lon": 88.561636 }, "geometry": { "type": "Point", "coordinates": [ 88.561635538916036, 27.28597582732862 ] } },
{ "type": "Feature", "properties": { "name": "Unnamed", "type": "shelter", "lat": 27.158356, "lon": 88.615409 }, "geometry": { "type": "Point", "coordinates": [ 88.615408564485705, 27.158356380817622 ] } },
{ "type": "Feature", "properties": { "name": "Namchi Public School", "type": "shelter", "lat": 27.170726, "lon": 88.370041 }, "geometry": { "type": "Point", "coordinates": [ 88.370041086647376, 27.170725894615771 ] } },
{ "type": "Feature", "properties": { "name": "Phodong Monastery (area)", "type": "shelter", "lat": 27.413039, "lon": 88.583849 }, "geometry": { "type": "Point", "coordinates": [ 88.58384944529422, 27.413039135134415 ] } },
{ "type": "Feature", "properties": { "name": "Phodong Monastery", "type": "shelter", "lat": 27.412911, "lon": 88.583875 }, "geometry": { "type": "Point", "coordinates": [ 88.583874930742994, 27.4129113538308 ] } },
{ "type": "Feature", "properties": { "name": "Mintogang Temple", "type": "shelter", "lat": 27.363828, "lon": 88.503205 }, "geometry": { "type": "Point", "coordinates": [ 88.503204593200678, 27.363827696628 ] } },
{ "type": "Feature", "properties": { "name": "Sikkim Manipal Institute of Technology", "type": "shelter", "lat": 27.182657, "lon": 88.502094 }, "geometry": { "type": "Point", "coordinates": [ 88.502093696562739, 27.182656915421845 ] } },
{ "type": "Feature", "properties": { "name": "Gnon-Sangdong Junior High School", "type": "shelter", "lat": 27.453686, "lon": 88.505211 }, "geometry": { "type": "Point", "coordinates": [ 88.505210840264979, 27.453686025708883 ] } },
{ "type": "Feature", "properties": { "name": "Unnamed", "type": "shelter", "lat": 27.454184, "lon": 88.505458 }, "geometry": { "type": "Point", "coordinates": [ 88.505457891412277, 27.454184448055226 ] } },
{ "type": "Feature", "properties": { "name": "Unnamed", "type": "shelter", "lat": 27.451949, "lon": 88.503879 }, "geometry": { "type": "Point", "coordinates": [ 88.503878860517176, 27.451949265641581 ] } },
{ "type": "Feature", "properties": { "name": "Lachung monastery", "type": "shelter", "lat": 27.688224, "lon": 88.748907 }, "geometry": { "type": "Point", "coordinates": [ 88.748907204060103, 27.688224380723256 ] } },
{ "type": "Feature", "properties": { "name": "Unnamed", "type": "shelter", "lat": 27.459718, "lon": 88.528929 }, "geometry": { "type": "Point", "coordinates": [ 88.528929142013624, 27.459718120923508 ] } },
{ "type": "Feature", "properties": { "name": "Unnamed", "type": "shelter", "lat": 27.309082, "lon": 88.363703 }, "geometry": { "type": "Point", "coordinates": [ 88.363703, 27.3090819 ] } },
{ "type": "Feature", "properties": { "name": "Unnamed", "type": "shelter", "lat": 27.328266, "lon": 88.337776 }, "geometry": { "type": "Point", "coordinates": [ 88.337775799189842, 27.328266397262283 ] } },
{ "type": "Feature", "properties": { "name": "Unnamed", "type": "shelter", "lat": 27.32826, "lon": 88.337783 }, "geometry": { "type": "Point", "coordinates": [ 88.337782585982552, 27.328260208877044 ] } },
{ "type": "Feature", "properties": { "name": "Unnamed", "type": "shelter", "lat": 27.310295, "lon": 88.364803 }, "geometry": { "type": "Point", "coordinates": [ 88.36480275, 27.31029475 ] } },
{ "type": "Feature", "properties": { "name": "Unnamed", "type": "shelter", "lat": 27.161426, "lon": 88.354682 }, "geometry": { "type": "Point", "coordinates": [ 88.354682143206574, 27.161425923854402 ] } },
{ "type": "Feature", "properties": { "name": "Sikkim Manipal University", "type": "shelter", "lat": 27.31748, "lon": 88.597362 }, "geometry": { "type": "Point", "coordinates": [ 88.597362390599329, 27.317479983649569 ] } },
{ "type": "Feature", "properties": { "name": "Nature interpretation center", "type": "shelter", "lat": 27.359762, "lon": 88.564958 }, "geometry": { "type": "Point", "coordinates": [ 88.564958200000021, 27.3597618 ] } },
{ "type": "Feature", "properties": { "name": "Gurumenlha", "type": "shelter", "lat": 27.534104, "lon": 88.479599 }, "geometry": { "type": "Point", "coordinates": [ 88.479599340242146, 27.534104253030009 ] } },
{ "type": "Feature", "properties": { "name": "Rangpo", "type": "shelter", "lat": 27.174436, "lon": 88.53034 }, "geometry": { "type": "Point", "coordinates": [ 88.5303403, 27.1744361 ] } },
{ "type": "Feature", "properties": { "name": "Ravangla", "type": "shelter", "lat": 27.305127, "lon": 88.364472 }, "geometry": { "type": "Point", "coordinates": [ 88.3644723, 27.3051271 ] } },
{ "type": "Feature", "properties": { "name": "Makha", "type": "shelter", "lat": 27.311426, "lon": 88.455179 }, "geometry": { "type": "Point", "coordinates": [ 88.4551789, 27.3114263 ] } },
{ "type": "Feature", "properties": { "name": "Lachen", "type": "shelter", "lat": 27.730614, "lon": 88.549501 }, "geometry": { "type": "Point", "coordinates": [ 88.5495009, 27.7306136 ] } },
{ "type": "Feature", "properties": { "name": "Tarku", "type": "shelter", "lat": 27.234631, "lon": 88.421626 }, "geometry": { "type": "Point", "coordinates": [ 88.4216256, 27.2346306 ] } },
{ "type": "Feature", "properties": { "name": "Unnamed", "type": "shelter", "lat": 27.243121, "lon": 88.66386 }, "geometry": { "type": "Point", "coordinates": [ 88.6638604, 27.2431209 ] } },
{ "type": "Feature", "properties": { "name": "Unnamed", "type": "shelter", "lat": 27.245277, "lon": 88.692772 }, "geometry": { "type": "Point", "coordinates": [ 88.6927724, 27.2452766 ] } },
{ "type": "Feature", "properties": { "name": "Unnamed", "type": "shelter", "lat": 27.258386, "lon": 88.701669 }, "geometry": { "type": "Point", "coordinates": [ 88.7016686, 27.2583857 ] } },
{ "type": "Feature", "properties": { "name": "Unnamed", "type": "shelter", "lat": 27.272355, "lon": 88.512237 }, "geometry": { "type": "Point", "coordinates": [ 88.512237, 27.2723551 ] } },
{ "type": "Feature", "properties": { "name": "Unnamed", "type": "shelter", "lat": 27.273352, "lon": 88.521444 }, "geometry": { "type": "Point", "coordinates": [ 88.5214439, 27.2733522 ] } },
{ "type": "Feature", "properties": { "name": "Pedong", "type": "shelter", "lat": 27.15513, "lon": 88.611796 }, "geometry": { "type": "Point", "coordinates": [ 88.6117963, 27.1551305 ] } },
{ "type": "Feature", "properties": { "name": "Rhenock", "type": "shelter", "lat": 27.174665, "lon": 88.644336 }, "geometry": { "type": "Point", "coordinates": [ 88.6443365, 27.1746652 ] } },
{ "type": "Feature", "properties": { "name": "Unnamed", "type": "shelter", "lat": 27.218533, "lon": 88.66515 }, "geometry": { "type": "Point", "coordinates": [ 88.6651504, 27.218533 ] } },
{ "type": "Feature", "properties": { "name": "Lingthem", "type": "shelter", "lat": 27.522891, "lon": 88.501328 }, "geometry": { "type": "Point", "coordinates": [ 88.5013279, 27.5228907 ] } },
{ "type": "Feature", "properties": { "name": "Tumlong", "type": "shelter", "lat": 27.420167, "lon": 88.579657 }, "geometry": { "type": "Point", "coordinates": [ 88.5796567, 27.4201667 ] } },
{ "type": "Feature", "properties": { "name": "Gnon-Sangdong, Lower Dzongu", "type": "shelter", "lat": 27.454299, "lon": 88.503363 }, "geometry": { "type": "Point", "coordinates": [ 88.5033626, 27.4542991 ] } },
{ "type": "Feature", "properties": { "name": "Chungthang", "type": "shelter", "lat": 27.604236, "lon": 88.64652 }, "geometry": { "type": "Point", "coordinates": [ 88.6465196, 27.604236 ] } },
{ "type": "Feature", "properties": { "name": "Golitar", "type": "shelter", "lat": 27.366015, "lon": 88.565358 }, "geometry": { "type": "Point", "coordinates": [ 88.5653575, 27.3660147 ] } },
{ "type": "Feature", "properties": { "name": "Unnamed", "type": "water", "lat": 27.548573, "lon": 88.576075 }, "geometry": { "type": "Point", "coordinates": [ 88.5760753, 27.5485734 ] } }
]
}
